GONETS-M 15             
1 44906U 19096B   25041.88044531  .00000023  00000+0  96576-4 0  9994
2 44906  82.5253  29.5837 0015708 163.0861 197.0746 12.42889420232618
GONETS-M 16             
1 44907U 19096C   25041.90605368  .00000027  00000+0  12018-3 0  9991
2 44907  82.5199  28.7394 0010808 203.3887 156.6702 12.42890694232606
RS-44 & BREEZE-KM R/B   
1 44909U 19096E   25041.79773353  .00000019  00000+0  35145-4 0  9998
2 44909  82.5233 306.2198 0216744 213.1072 145.6308 12.79738156239493
JILIN-1 KUANFU 01       
1 45016U 20003A   25041.91106027  .00007034  00000+0  42771-3 0  9996
2 45016  97.5537 119.1283 0002299 270.8029  89.2938 15.10757254281174
XINGYUN-2 01            
1 45602U 20028A   25041.92095500  .00004761  00000+0  31000-3 0  9995
2 45602  97.4618  41.1165 0011826  93.2779 266.9803 15.08353775260698
XINGYUN-2 02            
1 45603U 20028B   25041.91264584  .00004998  00000+0  32566-3 0  9995
2 45603  97.5116  52.5425 0012425 152.3462 207.8430 15.08303964260695
HAIYANG-1D              
1 45721U 20036A   25041.88454045  .00000446  00000+0  17526-3 0  9997
2 45721  98.6173 347.1408 0003044 106.8677 253.2841 14.34117262244554
M2 PATHFINDER           
1 45727U 20037E   25041.05561367  .00006908  00000+0  54993-3 0  9997
2 45727  97.7925 223.0034 0012922  28.5716 331.6213 15.00644991251573
GAOFEN DUOMO (GFDM)     
1 45856U 20042A   25041.92593174  .00001963  00000+0  28648-3 0  9997
2 45856  97.8400 112.7432 0012860 230.9523 129.0543 14.76825048248507
ZINYUAN-3               
1 45939U 20051A   25041.93214139  .00009926  00000+0  44775-3 0  9997
2 45939  97.3402 118.7131 0005299 346.1966  13.9124 15.21193516252653
TIANTUO 5               
1 46234U 20058C   25041.89186653  .00112605  00000+0  91680-3 0  9993
2 46234  97.2587 109.0211 0005562 216.7542 143.3340 15.70292535249808
TYVAK-0172              
1 46267U 20059C   25041.55275032  .00046209  00000+0  20070-2 0  9993
2 46267  97.7942 255.6881 0000445 215.0100 145.1106 15.22152956242781
ION-MK01                
1 46274U 20061C   25041.76127056  .00029345  00000+0  66127-3 0  9995
2 46274  97.2646 109.1810 0002332 326.2994  33.8105 15.43218446246600
UPMSAT-2                
1 46276U 20061E   25041.72775536  .00050499  00000+0  82536-3 0  9991
2 46276  97.2640 113.5025 0000442  32.0178 328.1102 15.52391159246935
NEMO-HD                 
1 46277U 20061F   25041.86762325  .00012196  00000+0  38476-3 0  9995
2 46277  97.2640 105.6553 0002227  55.7687 304.3766 15.33001142246429
DIDO 3                  
1 46284U 20061N   25041.74043352  .00238645  00000+0  16457-2 0  9995
2 46284  97.3056 116.9577 0000563 296.9479  63.1728 15.73891389246342
3CAT-5A                 
1 46292U 20061W   25041.71201029  .00017010  00000+0  58863-3 0  9997
2 46292  97.3143 103.9082 0004021  89.3858 270.7844 15.29937718245491
3CAT-5B                 
1 46293U 20061X   25041.67818588  .00017770  00000+0  60970-3 0  9992
2 46293  97.3155 104.2612 0003923  87.5288 272.6402 15.30207255245483
OSM-1 CICERO            
1 46294U 20061Y   25041.74115726  .00059018  00000+0  97314-3 0  9998
2 46294  97.3207 114.3788 0002473  72.7818 287.3705 15.52104350246174
NAPA-1                  
1 46320U 20061BA  25041.93742260  .00025879  00000+0  78360-3 0  9996
2 46320  97.3198 107.6707 0001937  51.9481 308.1937 15.34149620245759
JILIN-1 GAOFEN 3B       
1 46454U 20065A   25041.92936171  .00027594  00000+0  78505-3 0  9990
2 46454  97.3058  90.1738 0006891 108.5620 251.6373 15.36079666243983
JILIN-1 GAOFEN 3E       
1 46457U 20065D   25041.94529681  .00022682  00000+0  76043-3 0  9997
2 46457  97.3068  89.7235 0024958 145.0492 215.2394 15.30609142243947
JILIN-1 GAOFEN 3F       
1 46458U 20065E   25041.94390862  .00022323  00000+0  75886-3 0  9991
2 46458  97.3002  88.2731 0026904 131.9803 228.3736 15.30113026243940
JILIN-1 GAOFEN 3G       
1 46459U 20065F   25041.90239941  .00026474  00000+0  78409-3 0  9993
2 46459  97.3118  91.5210 0015456  19.8395 340.3446 15.34728033243989
JILIN-1 GAOFEN 3H       
1 46460U 20065G   25041.92095328  .00024858  00000+0  74976-3 0  9995
2 46460  97.3025  89.0393 0014485 302.3581  57.6260 15.34180021243970
JILIN-1 GAOFEN 3J       
1 46462U 20065J   25041.91428429  .00027205  00000+0  79501-3 0  9996
2 46462  97.3062  90.2886 0007484 114.0974 246.1053 15.35237040243991
HAIYANG-2C              
1 46469U 20066A   25041.92279193  .00000029  00000+0  99841-4 0  9992
2 46469  65.9984 358.4241 0006172 299.7510  60.2943 13.83378777221540
HJ-2A                   
1 46478U 20067A   25041.91949545  .00001848  00000+0  27178-3 0  9990
2 46478  97.9218 125.7260 0003521  60.3647 299.7914 14.76616383235766
HJ-2B                   
1 46479U 20067B   25041.88821917  .00001782  00000+0  26287-3 0  9996
2 46479  97.9265 126.3853 0003437 135.6905 224.4581 14.76535937235763
GONETS-M 17             
1 46486U 20068A   25041.85102109  .00000047  00000+0  26649-3 0  9992
2 46486  82.4976 293.1473 0023661  28.1923 332.0432 12.42887535198121
GONETS-M 18             
1 46487U 20068B   25041.89791853  .00000051  00000+0  29550-3 0  9996
2 46487  82.4929 292.4260 0020817  25.1005 335.1081 12.42876392198116
GONETS-M 19             
1 46488U 20068C   25041.87029211  .00000055  00000+0  32401-3 0  9990
2 46488  82.4954 292.7872 0014728  40.0717 320.1446 12.42902026198211
MEZNSAT                 
1 46489U 20068D   25041.94251167  .00105367  00000+0  13998-2 0  9997
2 46489  97.8261  29.7517 0009485 134.8232 225.3795 15.57801816241491
YARILO 1                
1 46490U 20068E   25041.94859061  .00308194  00000+0  16240-2 0  9992
2 46490  97.8240  33.8691 0009966 128.6202 231.5958 15.79777804241742
DEKART                  
1 46493U 20068H   25041.86808426  .00015916  00000+0  67298-3 0  9992
2 46493  97.8461  17.0259 0011597 201.5278 158.5472 15.23253218240623
NORBI                   
1 46494U 20068J   25041.88062151  .00019932  00000+0  75736-3 0  9990
2 46494  97.8449  18.8772 0010687 193.6603 166.4347 15.26794672240740
SALSAT                  
1 46495U 20068K   25041.90408967  .00011395  00000+0  53485-3 0  9995
2 46495  97.8476  14.7877 0011196 203.5005 156.5719 15.19766079240481
ICEYE-X6                
1 46497U 20068M   25041.85013008  .00007505  00000+0  59750-3 0  9998
2 46497  98.0237  10.3692 0003980 332.0740  28.0269 15.00681314239461
NETSAT-4                
1 46504U 20068U   25041.88675537  .00019708  00000+0  78815-3 0  9992
2 46504  97.8340  13.5410 0005705 249.2584 110.8041 15.25128830240429
NETSAT-3                
1 46505U 20068V   25041.91211651  .00018663  00000+0  76864-3 0  9991
2 46505  97.8330  12.7565 0005251 264.9934  95.0702 15.24154644240407
NETSAT-1                
1 46506U 20068W   25041.89758207  .00013903  00000+0  63802-3 0  9992
2 46506  97.8357  11.3329 0004765 285.7484  74.3224 15.20537273240307
NETSAT-2                
1 46507U 20068X   25041.85226259  .00021881  00000+0  88057-3 0  9999
2 46507  97.8332  13.0581 0003725 291.5284  68.5556 15.24903500240361
TIANQI-6                
1 46810U 20076D   25041.75567151  .00007990  00000+0  60196-3 0  9992
2 46810  34.9991 173.1090 0012207 171.6491 188.4422 15.01761083234514
KSM1-C                  
1 46906U 20081B   25041.76836125  .00013999  00000+0  71921-3 0  9999
2 46906  36.8921 188.5069 0004341  84.1433 275.9807 15.15859711234288
KSM1-D                  
1 46907U 20081C   25041.77620639  .00012967  00000+0  68290-3 0  9991
2 46907  36.8954 190.8850 0005990  97.1716 262.9710 15.15003190234289
KSM1-A                  
1 46912U 20081H   25041.86687817  .00012447  00000+0  64546-3 0  9991
2 46912  36.8949 187.8133 0004228 158.0441 202.0487 15.15568382234335
R2                      
1 46913U 20081J   25041.58612898  .00013184  00000+0  68571-3 0  9999
2 46913  36.8985 187.9213 0009528 114.5756 245.5983 15.15417601237119
KSM1-B                  
1 46914U 20081K   25041.73146495  .00012801  00000+0  67593-3 0  9990
2 46914  36.8999 190.8919 0007984 117.4586 242.6972 15.14905178237372
GONETS-M 20             
1 47227U 20091A   25041.88985668  .00000043  00000+0  23576-3 0  9996
2 47227  82.4991 247.7935 0020686 171.8728 188.2691 12.42891542190047
GONETS-M 21             
1 47228U 20091B   25041.94272767  .00000078  00000+0  49511-3 0  9998
2 47228  82.4916 246.7712 0014480 184.3926 175.7029 12.42860803190043
GONETS-M 22             
1 47229U 20091C   25041.91613091  .00000084  00000+0  53190-3 0  9990
2 47229  82.4972 247.4553 0021754 165.6114 194.5589 12.42898973189991
CUBEL                   
1 47448U 21006AM  25041.71995320  .00011024  00000+0  40169-3 0  9994
2 47448  97.3086  94.0677 0010258 131.5523 228.6598 15.28308557224362
ASTROCAST-0103          
1 47487U 21006CC  25041.72397388  .00028544  00000+0  72213-3 0  9998
2 47487  97.3205  99.7039 0007340 132.5824 227.6042 15.39703330224694
ASTROCAST-0104          
1 47519U 21006DK  25041.66935515  .00022989  00000+0  60861-3 0  9990
2 47519  97.3143  98.6118 0007741 113.5732 246.6327 15.38347532224660
ARKTIKA-M 1             
1 47719U 21016A   25041.51860462  .00000012  00000+0  00000+0 0  9993
2 47719  63.1318 123.6130 7044302 268.4878  17.1440  2.00623650 28923
STARLINK-2342           
1 47883U 21021Z   25041.85550849  .00005982  00000+0  42012-3 0  9997
2 47883  53.0526 235.6316 0001305  87.4491 272.6647 15.06399358217239
GRUS-1B                 
1 47934U 21022C   25041.89857984  .00003216  00000+0  27373-3 0  9990
2 47934  97.6012 294.7808 0017727 166.2660 193.9049 14.98377005212333
2021-022F               
1 47937U 21022F   25041.91264146  .00012356  00000+0  53128-3 0  9990
2 47937  97.4389 300.3017 0013370  37.7394 322.4777 15.22710906214690
CANYVAL-C (PUMBAA)      
1 47938U 21022G   25041.92090887  .00085404  00000+0  13468-2 0  9997
2 47938  97.4319 309.1538 0008902  28.9790 331.1955 15.53202617215310
